{
"type": "FeatureCollection",
"name": "dac_area",
"crs": { "type": "name", "properties": { "name": "urn:ogc:def:crs:OGC:1.3:CRS84" } },
"features": [
{ "type": "Feature", "id": 0, "properties": { "native_indigenous": "0.947147651006711", "renter_percent": "1", "percentile_rank_combined": "0.987236", "vulnerability_score": "72.151832300358", "population_count": "5483", "lmi_80_ami": "98.0954374215153", "home_energy_affordability": "0.257639179573043", "percentile_rank_combined_1": "0.976122", "vulnerability_score_percentile": "0.925298", "oil_storage": "0", "coastal_flooding_storm_risk": "0.800185873605948", "percentile_rank_combined_2": "0", "households_disabled": "0.803556485355649", "traffic_truck_highways": "0.761797752808989", "benzene_concentration": "0.786858316221766", "agricultural_land_use": "0", "rmp_sites": "69.7875850690864", "industrial_land_use": "0", "traffic_number_vehicles": "0.985118423810522", "lmi_poverty_federal": "0.9642034749843", "health_insurance_rate": "0.351385390428212", "particulate_matter_25": "0.988249845392703", "population_no_college": "0.945397489539749", "redc": "New York City", "burden_score_percentile": "0.956576", "remediation_sites": "0", "inland_flooding_risk": "0", "copd_ed_rate": "0.0924952701282321", "city_town": "New York city", "scrap_metal_processing": "0", "redlining_updated": "1", "dac_designation": "Designated as DAC", "county": "New York", "age_over_65": "0.955639255074283", "premature_deaths": "0.211267605633803", "asthma_ed_rate": "0.653983603111205", "unemployment_rate": "0.93186119873817", "household_single_parent": "0.70223271790468", "burden_score": "48.4928589982662", "low_vegetative_cover": "0.608390072479684", "housing_vacancy_rate": "0.00106224771616741", "mobile_homes": "0", "drive_time_healthcare": "0.528883445601143", "black_african_american_percent": "0.832615252046532", "household_low_count_flag": "No", "days_above_90_degrees_2050": "0.78521986970684", "landfills": "0", "tribal_designation": "No", "english_proficiency": "0.975", "internet_access": "0.990332072299285", "latino_percent": "0.814361140443506", "rent_percent_income": "0.538347457627119", "combined_score": "120.644691298624", "household_count": "2132", "mi_hospitalization_rate": "0.0791412334245422", "urban_rural": "urban", "homes_built_before_1960": "0.937866108786611", "municipal_waste_combustors": "0", "low_birth_weight": "0.415394268981385", "nyc_region": "NYC", "geoid": "36061002500", "wastewater_discharge": "0.978890876565295", "asian_percent": "0.949977767896843", "power_generation_facilities": "0.488805970149254" }, "geometry": { "type": "Polygon", "coordinates": [ [ [ -74.001235, 40.710055 ], [ -74.001136, 40.710176 ], [ -74.000776, 40.71064 ], [ -74.00051, 40.710984 ], [ -73.999701, 40.71178 ], [ -73.999514, 40.711798 ], [ -73.998678, 40.711879 ], [ -73.99851, 40.711896 ], [ -73.99777, 40.711971 ], [ -73.996947, 40.712072 ], [ -73.996782, 40.711364 ], [ -73.996444, 40.710199 ], [ -73.996354, 40.709785 ], [ -73.996222, 40.709181 ], [ -73.996063, 40.709119 ], [ -73.996044, 40.709048 ], [ -73.996032, 40.708998 ], [ -73.996010858606795, 40.708917349499991 ], [ -73.996018983957597, 40.708916224350055 ], [ -73.996664009965897, 40.708826904517743 ], [ -73.997282871955775, 40.708731619842943 ], [ -73.998083511869993, 40.708509615367156 ], [ -73.998286023205921, 40.70842993146762 ], [ -73.998527585853111, 40.708331527908307 ], [ -73.998561146206157, 40.708315283233567 ], [ -73.998721979550638, 40.708237452896213 ], [ -73.998753965708588, 40.708223651027225 ], [ -73.998808462766448, 40.708200134992708 ], [ -73.998821584209836, 40.708175481677515 ], [ -73.998881308638801, 40.708136633919828 ], [ -73.998983409632444, 40.708092653316179 ], [ -73.999052767385507, 40.708032545866381 ], [ -73.999130189205999, 40.707984953732385 ], [ -73.999177, 40.708022 ], [ -73.999296, 40.708111 ], [ -73.999378, 40.708181 ], [ -73.999495, 40.708279 ], [ -73.999869, 40.70857 ], [ -74.000206, 40.708835 ], [ -74.000232, 40.708856 ], [ -74.0004229012536, 40.709009825390289 ], [ -74.000474492480052, 40.709051499269648 ], [ -74.000678937072465, 40.709216641548572 ], [ -74.001225, 40.709658 ], [ -74.001419, 40.709815 ], [ -74.001281, 40.709994 ], [ -74.001235, 40.710055 ] ] ] } },
{ "type": "Feature", "id": 1, "properties": { "native_indigenous": "0.648489932885906", "renter_percent": "0.966289782244556", "percentile_rank_combined": "0.947269", "vulnerability_score": "59.7486568696782", "population_count": "9315", "lmi_80_ami": "87.4424445374634", "home_energy_affordability": "0.257639179573043", "percentile_rank_combined_1": "0.910697", "vulnerability_score_percentile": "0.753714", "oil_storage": "0", "coastal_flooding_storm_risk": "0.654275092936803", "percentile_rank_combined_2": "0", "households_disabled": "0.492050209205021", "traffic_truck_highways": "0.861695607763023", "benzene_concentration": "0.829158110882957", "agricultural_land_use": "0", "rmp_sites": "74.7576819962879", "industrial_land_use": "0.695701357466063", "traffic_number_vehicles": "0.942988891217774", "lmi_poverty_federal": "0.827925476240318", "health_insurance_rate": "0.69647355163728", "particulate_matter_25": "0.985569985569986", "population_no_college": "0.784309623430962", "redc": "New York City", "burden_score_percentile": "0.973739", "remediation_sites": "0.574183976261128", "inland_flooding_risk": "0", "copd_ed_rate": "0.0924952701282321", "city_town": "New York city", "scrap_metal_processing": "0", "redlining_updated": "1", "dac_designation": "Designated as DAC", "county": "New York", "age_over_65": "0.962125967775685", "premature_deaths": "0.211267605633803", "asthma_ed_rate": "0.653983603111205", "unemployment_rate": "0.766351209253418", "household_single_parent": "0.413267496779734", "burden_score": "51.0985249066758", "low_vegetative_cover": "0.756643971008126", "housing_vacancy_rate": "0.376673040152964", "mobile_homes": "0", "drive_time_healthcare": "0.175750153092468", "black_african_american_percent": "0.0101249461439035", "household_low_count_flag": "No", "days_above_90_degrees_2050": "0.78521986970684", "landfills": "0", "tribal_designation": "No", "english_proficiency": "0.991421568627451", "internet_access": "0.985498108448928", "latino_percent": "0.255121436114044", "rent_percent_income": "0.845762711864407", "combined_score": "110.847181776354", "household_count": "3706", "mi_hospitalization_rate": "0.0791412334245422", "urban_rural": "urban", "homes_built_before_1960": "0.853138075313808", "municipal_waste_combustors": "0", "low_birth_weight": "0.415394268981385", "nyc_region": "NYC", "geoid": "36061000800", "wastewater_discharge": "0.977101967799642", "asian_percent": "0.999555357936861", "power_generation_facilities": "0.611940298507463" }, "geometry": { "type": "Polygon", "coordinates": [ [ [ -73.996478, 40.714107 ], [ -73.99484, 40.714209 ], [ -73.994657, 40.71422 ], [ -73.9945, 40.714231 ], [ -73.994347, 40.714247 ], [ -73.99414, 40.714269 ], [ -73.993951, 40.714291 ], [ -73.993016, 40.714356 ], [ -73.992852, 40.714367 ], [ -73.992562, 40.714388 ], [ -73.992468, 40.713857 ], [ -73.992392, 40.713191 ], [ -73.992267, 40.712468 ], [ -73.992183, 40.711775 ], [ -73.991977, 40.710911 ], [ -73.991777, 40.709819 ], [ -73.99186, 40.709808 ], [ -73.991897, 40.709802 ], [ -73.991995, 40.709786 ], [ -73.992075, 40.709771 ], [ -73.992028, 40.709693 ], [ -73.99197, 40.709586 ], [ -73.991939, 40.709528 ], [ -73.991936343153, 40.70952343932165 ], [ -73.99203926968346, 40.709516919665333 ], [ -73.992091316359691, 40.709508222903828 ], [ -73.992148689701494, 40.709498609104131 ], [ -73.992361161399103, 40.709464368811439 ], [ -73.992848467486468, 40.709381877638769 ], [ -73.993740128622278, 40.709246120435353 ], [ -73.994008201640455, 40.709237479919054 ], [ -73.99414063200345, 40.709233267399966 ], [ -73.994378235439356, 40.709192639198967 ], [ -73.994578999637241, 40.709130972910081 ], [ -73.995175773698364, 40.709034293307752 ], [ -73.995803856535687, 40.708946013907529 ], [ -73.996010858606795, 40.708917349499991 ], [ -73.996032, 40.708998 ], [ -73.996044, 40.709048 ], [ -73.996063, 40.709119 ], [ -73.996222, 40.709181 ], [ -73.996354, 40.709785 ], [ -73.996444, 40.710199 ], [ -73.996782, 40.711364 ], [ -73.996947, 40.712072 ], [ -73.997117, 40.712799 ], [ -73.9973, 40.713468 ], [ -73.997504, 40.714069 ], [ -73.997444, 40.714067 ], [ -73.996478, 40.714107 ] ] ] } },
{ "type": "Feature", "id": 2, "properties": { "native_indigenous": "0.00866890380313199", "renter_percent": "1", "percentile_rank_combined": "0.979284", "vulnerability_score": "69.4589916443767", "population_count": "2750", "lmi_80_ami": "98.7023859355379", "home_energy_affordability": "0.257639179573043", "percentile_rank_combined_1": "0.964661", "vulnerability_score_percentile": "0.894539", "oil_storage": "0", "coastal_flooding_storm_risk": "0.62546468401487", "percentile_rank_combined_2": "0", "households_disabled": "0.810669456066946", "traffic_truck_highways": "0.768743615934627", "benzene_concentration": "0.865503080082135", "agricultural_land_use": "0", "rmp_sites": "80.0989894823675", "industrial_land_use": "0", "traffic_number_vehicles": "0.892475372039405", "lmi_poverty_federal": "0.927360267950597", "health_insurance_rate": "0.731528127623846", "particulate_matter_25": "0.974850546279118", "population_no_college": "0.844769874476987", "redc": "New York City", "burden_score_percentile": "0.954715", "remediation_sites": "0", "inland_flooding_risk": "0", "copd_ed_rate": "0.576834139163338", "city_town": "New York city", "scrap_metal_processing": "0", "redlining_updated": "1", "dac_designation": "Designated as DAC", "county": "New York", "age_over_65": "0.513287298598033", "premature_deaths": "0.510405717889426", "asthma_ed_rate": "0.924952701282321", "unemployment_rate": "0.578338590956887", "household_single_parent": "0.907471017604122", "burden_score": "48.3923814146025", "low_vegetative_cover": "0.716011421041072", "housing_vacancy_rate": "0.0962396430847674", "mobile_homes": "0", "drive_time_healthcare": "0.426821800367422", "black_african_american_percent": "0.71111589831969", "household_low_count_flag": "No", "days_above_90_degrees_2050": "0.78521986970684", "landfills": "0", "tribal_designation": "No", "english_proficiency": "0.966911764705882", "internet_access": "0.953762084909626", "latino_percent": "0.863780359028511", "rent_percent_income": "0.5", "combined_score": "117.851373058979", "household_count": "1092", "mi_hospitalization_rate": "0.257840454641128", "urban_rural": "urban", "homes_built_before_1960": "0.397489539748954", "municipal_waste_combustors": "0", "low_birth_weight": "0.633340305375445", "nyc_region": "NYC", "geoid": "36061000201", "wastewater_discharge": "0.981037567084079", "asian_percent": "0.958203646064918", "power_generation_facilities": "0.794776119402985" }, "geometry": { "type": "Polygon", "coordinates": [ [ [ -73.986077, 40.714401 ], [ -73.985344, 40.714462 ], [ -73.985243, 40.713846 ], [ -73.985114, 40.713787 ], [ -73.985058, 40.713078 ], [ -73.98495, 40.712355 ], [ -73.984855, 40.711713 ], [ -73.984785, 40.711229 ], [ -73.984703, 40.710702 ], [ -73.984684, 40.710605 ], [ -73.984665, 40.710514 ], [ -73.984655, 40.710465 ], [ -73.984548079531947, 40.70950469579622 ], [ -73.986398289835947, 40.709326584385721 ], [ -73.986546917525473, 40.7093123491127 ], [ -73.986605, 40.710284 ], [ -73.986612, 40.710391 ], [ -73.98662, 40.710464 ], [ -73.986742, 40.711536 ], [ -73.986926, 40.712903 ], [ -73.987062, 40.713638 ], [ -73.987165, 40.714312 ], [ -73.986077, 40.714401 ] ] ] } },
{ "type": "Feature", "id": 3, "properties": { "native_indigenous": "0.601230425055928", "renter_percent": "0.959170854271357", "percentile_rank_combined": "0.991839", "vulnerability_score": "74.4657517543269", "population_count": "9838", "lmi_80_ami": "91.2934282126413", "home_energy_affordability": "0.584972791963165", "percentile_rank_combined_1": "0.985196", "vulnerability_score_percentile": "0.953756", "oil_storage": "0", "coastal_flooding_storm_risk": "0.645910780669145", "percentile_rank_combined_2": "0", "households_disabled": "0.924686192468619", "traffic_truck_highways": "0.862921348314607", "benzene_concentration": "0.856262833675565", "agricultural_land_use": "0", "rmp_sites": "78.1810682614972", "industrial_land_use": "0.17420814479638", "traffic_number_vehicles": "0.915112135820583", "lmi_poverty_federal": "0.965040820598702", "health_insurance_rate": "0.842779177162049", "particulate_matter_25": "0.980828695114409", "population_no_college": "0.823849372384937", "redc": "New York City", "burden_score_percentile": "0.960091", "remediation_sites": "0", "inland_flooding_risk": "0", "copd_ed_rate": "0.576834139163338", "city_town": "New York city", "scrap_metal_processing": "0", "redlining_updated": "1", "dac_designation": "Designated as DAC", "county": "New York", "age_over_65": "0.986189579409918", "premature_deaths": "0.510405717889426", "asthma_ed_rate": "0.924952701282321", "unemployment_rate": "0.765720294426919", "household_single_parent": "0.582438814942035", "burden_score": "49.0453975824724", "low_vegetative_cover": "0.641555018669009", "housing_vacancy_rate": "0.417038453367325", "mobile_homes": "0", "drive_time_healthcare": "0.349459073280261", "black_african_american_percent": "0.632701421800948", "household_low_count_flag": "No", "days_above_90_degrees_2050": "0.78521986970684", "landfills": "0", "tribal_designation": "No", "english_proficiency": "0.984803921568627", "internet_access": "0.993484657419084", "latino_percent": "0.792185850052798", "rent_percent_income": "0.761864406779661", "combined_score": "123.511149336799", "household_count": "4049", "mi_hospitalization_rate": "0.257840454641128", "urban_rural": "urban", "homes_built_before_1960": "0.433891213389121", "municipal_waste_combustors": "0", "low_birth_weight": "0.633340305375445", "nyc_region": "NYC", "geoid": "36061000600", "wastewater_discharge": "0.980679785330948", "asian_percent": "0.983548243663851", "power_generation_facilities": "0.744402985074627" }, "geometry": { "type": "Polygon", "coordinates": [ [ [ -73.992134, 40.71442 ], [ -73.991225, 40.714487 ], [ -73.990755, 40.714554 ], [ -73.99022, 40.714405 ], [ -73.989337, 40.714133 ], [ -73.988703, 40.714185 ], [ -73.987165, 40.714312 ], [ -73.987062, 40.713638 ], [ -73.986926, 40.712903 ], [ -73.986742, 40.711536 ], [ -73.98662, 40.710464 ], [ -73.986612, 40.710391 ], [ -73.986605, 40.710284 ], [ -73.986546917525473, 40.7093123491127 ], [ -73.988146261720956, 40.709159167014874 ], [ -73.988155460514093, 40.709149142473301 ], [ -73.988390640232666, 40.709126949162673 ], [ -73.98844653437385, 40.709133820547009 ], [ -73.988479672687745, 40.709155846805935 ], [ -73.988497271738794, 40.709176305293205 ], [ -73.988636580718506, 40.709912061516313 ], [ -73.988645334936848, 40.709916933898569 ], [ -73.988667505809431, 40.709920034830745 ], [ -73.98869610271332, 40.709928449844554 ], [ -73.988717711112471, 40.709947090016293 ], [ -73.98873681707525, 40.709970741845126 ], [ -73.988797177858032, 40.709966607472232 ], [ -73.988898459808837, 40.709954735765038 ], [ -73.98935765696676, 40.709900986707872 ], [ -73.989460670194276, 40.709889287051304 ], [ -73.989574496087187, 40.709874081606543 ], [ -73.989745151557415, 40.709848761655664 ], [ -73.990158253733824, 40.709790372663768 ], [ -73.990514203766978, 40.709733884118819 ], [ -73.990789130185604, 40.709689506588681 ], [ -73.991067834630073, 40.709657229842641 ], [ -73.991351092370607, 40.709620332703359 ], [ -73.99170260292523, 40.709565262453474 ], [ -73.991767795801323, 40.709555055523751 ], [ -73.991905443664507, 40.709525396582272 ], [ -73.991936343153, 40.70952343932165 ], [ -73.991939, 40.709528 ], [ -73.99197, 40.709586 ], [ -73.992028, 40.709693 ], [ -73.992075, 40.709771 ], [ -73.991995, 40.709786 ], [ -73.991897, 40.709802 ], [ -73.99186, 40.709808 ], [ -73.991777, 40.709819 ], [ -73.991977, 40.710911 ], [ -73.992183, 40.711775 ], [ -73.992267, 40.712468 ], [ -73.992392, 40.713191 ], [ -73.992468, 40.713857 ], [ -73.992562, 40.714388 ], [ -73.992134, 40.71442 ] ] ] } },
{ "type": "Feature", "id": 4, "properties": { "native_indigenous": "0.795022371364653", "renter_percent": "0.819304857621441", "percentile_rank_combined": "0.975309", "vulnerability_score": "66.8564221198097", "population_count": "7773", "lmi_80_ami": "72.1222268731687", "home_energy_affordability": "0.257639179573043", "percentile_rank_combined_1": "0.958453", "vulnerability_score_percentile": "0.86064", "oil_storage": "0", "coastal_flooding_storm_risk": "0.592007434944238", "percentile_rank_combined_2": "0", "households_disabled": "0.88744769874477", "traffic_truck_highways": "0.805924412665986", "benzene_concentration": "0.877618069815195", "agricultural_land_use": "0.136133603238866", "rmp_sites": "81.439472056094", "industrial_land_use": "0", "traffic_number_vehicles": "0.926849717040453", "lmi_poverty_federal": "0.877119531086456", "health_insurance_rate": "0.019311502938707", "particulate_matter_25": "0.969490826633684", "population_no_college": "0.439121338912134", "redc": "New York City", "burden_score_percentile": "0.965674", "remediation_sites": "0", "inland_flooding_risk": "0", "copd_ed_rate": "0.576834139163338", "city_town": "New York city", "scrap_metal_processing": "0", "redlining_updated": "1", "dac_designation": "Designated as DAC", "county": "New York", "age_over_65": "0.8200460347353", "premature_deaths": "0.510405717889426", "asthma_ed_rate": "0.924952701282321", "unemployment_rate": "0.876130389064143", "household_single_parent": "0.843709746672392", "burden_score": "49.8159896751042", "low_vegetative_cover": "0.603118822754228", "housing_vacancy_rate": "0.518164435946463", "mobile_homes": "0", "drive_time_healthcare": "0.364972443355787", "black_african_american_percent": "0.7414907367514", "household_low_count_flag": "No", "days_above_90_degrees_2050": "0.78521986970684", "landfills": "0", "tribal_designation": "No", "english_proficiency": "0.849754901960784", "internet_access": "0.92938209331652", "latino_percent": "0.85765575501584", "rent_percent_income": "0.372245762711864", "combined_score": "116.672411794914", "household_count": "3389", "mi_hospitalization_rate": "0.257840454641128", "urban_rural": "urban", "homes_built_before_1960": "0.576359832635983", "municipal_waste_combustors": "0", "low_birth_weight": "0.633340305375445", "nyc_region": "NYC", "geoid": "36061000202", "wastewater_discharge": "0.98175313059034", "asian_percent": "0.86016007114273", "power_generation_facilities": "0.94589552238806" }, "geometry": { "type": "Polygon", "coordinates": [ [ [ -73.984706, 40.714512 ], [ -73.98312, 40.714618 ], [ -73.982786, 40.714658 ], [ -73.982453, 40.714699 ], [ -73.982342, 40.714658 ], [ -73.98165, 40.714461 ], [ -73.980923, 40.714264 ], [ -73.979962, 40.713973 ], [ -73.97929, 40.713762 ], [ -73.978741, 40.713597 ], [ -73.978519, 40.71353 ], [ -73.978434, 40.713504 ], [ -73.977587, 40.713254 ], [ -73.977377, 40.713192 ], [ -73.977245, 40.713153 ], [ -73.975933, 40.712907 ], [ -73.97592109349641, 40.712893635479908 ], [ -73.975968445196955, 40.712789573390864 ], [ -73.976049814555083, 40.712604193777928 ], [ -73.976123688387901, 40.712460325398347 ], [ -73.976165312383202, 40.712420197910845 ], [ -73.976311278671972, 40.712118647310191 ], [ -73.976428725145283, 40.711909032503698 ], [ -73.976505401153915, 40.71179878945253 ], [ -73.976550088142204, 40.711734538728315 ], [ -73.976712215396674, 40.711535765178404 ], [ -73.976818835400479, 40.711419567523777 ], [ -73.976990765746265, 40.711256660230561 ], [ -73.97705659401754, 40.711197626466813 ], [ -73.977222135625695, 40.711068731228352 ], [ -73.977526684326392, 40.710843072733191 ], [ -73.977721194930695, 40.710710074660746 ], [ -73.977820916382456, 40.710645444907001 ], [ -73.977899496194453, 40.710599866202401 ], [ -73.977996747903845, 40.710561017391662 ], [ -73.978079749066211, 40.710532250577266 ], [ -73.978181906942837, 40.710506865517658 ], [ -73.978255577492121, 40.710497909055306 ], [ -73.978371481652573, 40.71048970749159 ], [ -73.97861560123998, 40.710473781910906 ], [ -73.978776133420837, 40.710463315047285 ], [ -73.979188943770055, 40.710434923388299 ], [ -73.979207264346101, 40.710433666393129 ], [ -73.979290152371206, 40.710428144566997 ], [ -73.980036422928336, 40.710378401266688 ], [ -73.980283443321767, 40.710361815611073 ], [ -73.980336524904729, 40.710359200714727 ], [ -73.980330901244287, 40.710286938313573 ], [ -73.980510460263645, 40.71027475194569 ], [ -73.981286475525579, 40.710218347881678 ], [ -73.981245795699451, 40.709826214601264 ], [ -73.983060194774012, 40.709647911748149 ], [ -73.983642344726334, 40.709591879244776 ], [ -73.984496470767638, 40.709509663939457 ], [ -73.984548079531947, 40.70950469579622 ], [ -73.984655, 40.710465 ], [ -73.984665, 40.710514 ], [ -73.984684, 40.710605 ], [ -73.984703, 40.710702 ], [ -73.984785, 40.711229 ], [ -73.984855, 40.711713 ], [ -73.98495, 40.712355 ], [ -73.985058, 40.713078 ], [ -73.985114, 40.713787 ], [ -73.985243, 40.713846 ], [ -73.985344, 40.714462 ], [ -73.984706, 40.714512 ] ] ] } },
{ "type": "Feature", "id": 5, "properties": { "native_indigenous": "0.751398210290828", "renter_percent": "0.499790619765494", "percentile_rank_combined": "0.748692", "vulnerability_score": "44.4515424642902", "population_count": "1546", "lmi_80_ami": "45.6257848472164", "home_energy_affordability": "0.0632063624947677", "percentile_rank_combined_1": "0.598376", "vulnerability_score_percentile": "0.424566", "oil_storage": "0", "coastal_flooding_storm_risk": "0.698884758364312", "percentile_rank_combined_2": "0", "households_disabled": "0.643305439330544", "traffic_truck_highways": "0.941368743615935", "benzene_concentration": "0.887268993839836", "agricultural_land_use": "0", "rmp_sites": "81.1301299236956", "industrial_land_use": "0", "traffic_number_vehicles": "0.951582477468036", "lmi_poverty_federal": "0.0893866443374503", "health_insurance_rate": "0.0587741393786734", "particulate_matter_25": "0.960626674912389", "population_no_college": "0.0926778242677824", "redc": "New York City", "burden_score_percentile": "0.960505", "remediation_sites": "0", "inland_flooding_risk": "0", "copd_ed_rate": "0.576834139163338", "city_town": "New York city", "scrap_metal_processing": "0", "redlining_updated": "1", "dac_designation": "Designated as DAC", "county": "New York", "age_over_65": "0.923624189160912", "premature_deaths": "0.510405717889426", "asthma_ed_rate": "0.924952701282321", "unemployment_rate": "0.470662460567823", "household_single_parent": "0.155002146844139", "burden_score": "49.1010110823848", "low_vegetative_cover": "0.654293872172194", "housing_vacancy_rate": "0.0382409177820268", "mobile_homes": "0", "drive_time_healthcare": "0.30883853847724", "black_african_american_percent": "0.333692373976734", "household_low_count_flag": "No", "days_above_90_degrees_2050": "0.78521986970684", "landfills": "0", "tribal_designation": "No", "english_proficiency": "0.422549019607843", "internet_access": "0.400378310214376", "latino_percent": "0.644561774023231", "rent_percent_income": "0.134745762711864", "combined_score": "93.552553546675", "household_count": "842", "mi_hospitalization_rate": "0.257840454641128", "urban_rural": "urban", "homes_built_before_1960": "0.933891213389121", "municipal_waste_combustors": "0", "low_birth_weight": "0.633340305375445", "nyc_region": "NYC", "geoid": "36061001001", "wastewater_discharge": "0.981395348837209", "asian_percent": "0.787461093819475", "power_generation_facilities": "0.985074626865672" }, "geometry": { "type": "Polygon", "coordinates": [ [ [ -73.979222, 40.715403 ], [ -73.979134, 40.715553 ], [ -73.979102, 40.715612 ], [ -73.97902, 40.715748 ], [ -73.978992, 40.715798 ], [ -73.978909, 40.715951 ], [ -73.978543, 40.715837 ], [ -73.978438, 40.715804 ], [ -73.978083, 40.715692 ], [ -73.977917, 40.715649 ], [ -73.97724, 40.715485 ], [ -73.976457, 40.715299 ], [ -73.976587, 40.715047 ], [ -73.976614, 40.714995 ], [ -73.976554, 40.714978 ], [ -73.976454, 40.714949 ], [ -73.9764, 40.714931 ], [ -73.976344, 40.714917 ], [ -73.975227, 40.714582 ], [ -73.975158874668381, 40.714561324828658 ], [ -73.975163608061877, 40.714551905691202 ], [ -73.975188509863059, 40.714503160723943 ], [ -73.97521387023663, 40.714448498798475 ], [ -73.975225496279577, 40.714423439941974 ], [ -73.975246663886253, 40.714377806305492 ], [ -73.975246704207322, 40.714377724561032 ], [ -73.975803112839699, 40.713178124589206 ], [ -73.975795327924331, 40.713170023191623 ], [ -73.97592109349641, 40.712893635479908 ], [ -73.975933, 40.712907 ], [ -73.977245, 40.713153 ], [ -73.977377, 40.713192 ], [ -73.977587, 40.713254 ], [ -73.978434, 40.713504 ], [ -73.978519, 40.71353 ], [ -73.978741, 40.713597 ], [ -73.97929, 40.713762 ], [ -73.979962, 40.713973 ], [ -73.979495, 40.71489 ], [ -73.979222, 40.715403 ] ] ] } },
{ "type": "Feature", "id": 6, "properties": { "native_indigenous": "0.855704697986577", "renter_percent": "0.928391959798995", "percentile_rank_combined": "0.874241", "vulnerability_score": "62.8643660344152", "population_count": "5924", "lmi_80_ami": "87.0866471326915", "home_energy_affordability": "0.584972791963165", "percentile_rank_combined_1": "0.785578", "vulnerability_score_percentile": "0.805608", "oil_storage": "0", "coastal_flooding_storm_risk": "0", "percentile_rank_combined_2": "0", "households_disabled": "0.715481171548117", "traffic_truck_highways": "0.761797752808989", "benzene_concentration": "0.742299794661191", "agricultural_land_use": "0", "rmp_sites": "69.7463394514333", "industrial_land_use": "0", "traffic_number_vehicles": "0.895828966673653", "lmi_poverty_federal": "0.843207033703161", "health_insurance_rate": "0.551847187237615", "particulate_matter_25": "0.990517419088848", "population_no_college": "0.519246861924686", "redc": "New York City", "burden_score_percentile": "0.848222", "remediation_sites": "0.574183976261128", "inland_flooding_risk": "0", "copd_ed_rate": "0.0924952701282321", "city_town": "New York city", "scrap_metal_processing": "0", "redlining_updated": "1", "dac_designation": "Designated as DAC", "county": "New York", "age_over_65": "0.894538606403013", "premature_deaths": "0.211267605633803", "asthma_ed_rate": "0.653983603111205", "unemployment_rate": "0.346792849631966", "household_single_parent": "0.0403606698153714", "burden_score": "40.6291513119906", "low_vegetative_cover": "0.657368767845377", "housing_vacancy_rate": "0.768005098789038", "mobile_homes": "0", "drive_time_healthcare": "0.144519289650949", "black_african_american_percent": "0.653382162860836", "household_low_count_flag": "No", "days_above_90_degrees_2050": "0.78521986970684", "landfills": "0", "tribal_designation": "No", "english_proficiency": "0.989950980392157", "internet_access": "0.991172761664565", "latino_percent": "0.472016895459345", "rent_percent_income": "0.919067796610169", "combined_score": "103.493517346406", "household_count": "2202", "mi_hospitalization_rate": "0.0791412334245422", "urban_rural": "urban", "homes_built_before_1960": "0.676569037656904", "municipal_waste_combustors": "0", "low_birth_weight": "0.415394268981385", "nyc_region": "NYC", "geoid": "36061002900", "wastewater_discharge": "0.957066189624329", "asian_percent": "0.985326811916407", "power_generation_facilities": "0" }, "geometry": { "type": "MultiPolygon", "coordinates": [ [ [ [ -73.998589, 40.717099 ], [ -73.997805521040647, 40.716828671303361 ], [ -73.997762859918168, 40.716813928624141 ], [ -73.996983752815439, 40.716540543172101 ], [ -73.996059138269885, 40.716231778125049 ], [ -73.996532, 40.715473 ], [ -73.996806, 40.715037 ], [ -73.997092, 40.714618 ], [ -73.997504, 40.714069 ], [ -73.997535, 40.714028 ], [ -73.997577, 40.713984 ], [ -73.997625, 40.713941 ], [ -73.997675, 40.7139 ], [ -73.997729, 40.713861 ], [ -73.997797, 40.713819 ], [ -73.997868, 40.71378 ], [ -73.997942, 40.713746 ], [ -73.99802, 40.713715 ], [ -73.998461, 40.713522 ], [ -73.998584, 40.713468 ], [ -73.998671, 40.713428 ], [ -73.998762, 40.713393 ], [ -73.998857, 40.713365 ], [ -73.998956, 40.713343 ], [ -73.999056, 40.713328 ], [ -73.999157, 40.713319 ], [ -74.000891, 40.713015 ], [ -74.000876765693519, 40.711972732448103 ], [ -74.000891662869336, 40.712999257853475 ], [ -74.000893543915609, 40.713029950285254 ], [ -74.000896403192286, 40.713047414110662 ], [ -74.000931742663312, 40.713263253045319 ], [ -74.001257020023417, 40.713496778667619 ], [ -74.001566356133736, 40.713683063496809 ], [ -74.000968404485278, 40.713905595611948 ], [ -74.00074652349376, 40.71451035323588 ], [ -74.000454630659604, 40.714365047598889 ], [ -74.000527349426932, 40.715170059365342 ], [ -74.000789551861686, 40.715290968401469 ], [ -74.000578392161188, 40.71557090292427 ], [ -74.000138209078315, 40.716199730562337 ], [ -73.999930977779698, 40.716543914270531 ], [ -73.999448382463868, 40.717329797098373 ], [ -73.999312686553353, 40.717549804745246 ], [ -73.998589, 40.717099 ] ] ], [ [ [ -74.000860661327906, 40.711535295333874 ], [ -74.000867815303565, 40.7115681588622 ], [ -74.000868770006974, 40.71159301004964 ], [ -74.000860661327906, 40.711535295333874 ] ] ], [ [ [ -74.000827860506277, 40.711409812144701 ], [ -74.000839624349595, 40.711438656854071 ], [ -74.000845178642322, 40.711464171849492 ], [ -74.000827860506277, 40.711409812144701 ] ] ], [ [ [ -74.000775287422869, 40.711291452518822 ], [ -74.000788013603383, 40.711312108332962 ], [ -74.00080300647501, 40.711348870555398 ], [ -74.000775287422869, 40.711291452518822 ] ] ], [ [ [ -74.000704898236236, 40.711181337429942 ], [ -74.000714096345575, 40.711192133518971 ], [ -74.000729804806667, 40.711217629861132 ], [ -74.000704898236236, 40.711181337429942 ] ] ], [ [ [ -74.000612718050945, 40.711075316451605 ], [ -74.000620250620202, 40.711081984055788 ], [ -74.000644183820299, 40.71111007515033 ], [ -74.000612718050945, 40.711075316451605 ] ] ], [ [ [ -74.00051, 40.710984 ], [ -74.000776, 40.71064 ], [ -74.001136, 40.710176 ], [ -74.001235, 40.710055 ], [ -74.001281, 40.709994 ], [ -74.001419, 40.709815 ], [ -74.001419119362652, 40.709815094357808 ], [ -74.001282585985521, 40.709994053472911 ], [ -74.001234766287325, 40.710055333035662 ], [ -74.001136466914147, 40.710175964727959 ], [ -74.001003255089927, 40.710354030266245 ], [ -74.000906336372708, 40.710477831356357 ], [ -74.000752893879778, 40.71067383219701 ], [ -74.000663669248041, 40.710787802877348 ], [ -74.0005100431204, 40.710984037785913 ], [ -74.00051, 40.710984 ] ] ] ] } },
{ "type": "Feature", "id": 7, "properties": { "native_indigenous": "0", "renter_percent": "0.941373534338358", "percentile_rank_combined": "0.758527", "vulnerability_score": "51.8219117626941", "population_count": "6968", "lmi_80_ami": "84.6169945583926", "home_energy_affordability": "0.257639179573043", "percentile_rank_combined_1": "0.614613", "vulnerability_score_percentile": "0.60159", "oil_storage": "0", "coastal_flooding_storm_risk": "0", "percentile_rank_combined_2": "0", "households_disabled": "0.426150627615063", "traffic_truck_highways": "0.819611848825332", "benzene_concentration": "0.804722792607803", "agricultural_land_use": "0", "rmp_sites": "74.0565064961848", "industrial_land_use": "0.32579185520362", "traffic_number_vehicles": "0.929364913016139", "lmi_poverty_federal": "0.807619845091061", "health_insurance_rate": "0.773089840470193", "particulate_matter_25": "0.983096268810555", "population_no_college": "0.35397489539749", "redc": "New York City", "burden_score_percentile": "0.887924", "remediation_sites": "0", "inland_flooding_risk": "0", "copd_ed_rate": "0.0924952701282321", "city_town": "New York city", "scrap_metal_processing": "0", "redlining_updated": "1", "dac_designation": "Designated as DAC", "county": "New York", "age_over_65": "0.893910860012555", "premature_deaths": "0.211267605633803", "asthma_ed_rate": "0.653983603111205", "unemployment_rate": "0.775394321766561", "household_single_parent": "0.0538857878917991", "burden_score": "42.3597275325489", "low_vegetative_cover": "0.833077092027235", "housing_vacancy_rate": "0.596770766942851", "mobile_homes": "0", "drive_time_healthcare": "0.0698101653398653", "black_african_american_percent": "0.279190004308488", "household_low_count_flag": "No", "days_above_90_degrees_2050": "0.78521986970684", "landfills": "0", "tribal_designation": "No", "english_proficiency": "0.962009803921569", "internet_access": "0.896595208070618", "latino_percent": "0.102006335797254", "rent_percent_income": "0.628389830508475", "combined_score": "94.1816392952429", "household_count": "2957", "mi_hospitalization_rate": "0.0791412334245422", "urban_rural": "urban", "homes_built_before_1960": "0.413598326359833", "municipal_waste_combustors": "0", "low_birth_weight": "0.415394268981385", "nyc_region": "NYC", "geoid": "36061001600", "wastewater_discharge": "0.961359570661896", "asian_percent": "0.997332147621165", "power_generation_facilities": "0.425373134328358" }, "geometry": { "type": "Polygon", "coordinates": [ [ [ -73.997092, 40.714618 ], [ -73.996806, 40.715037 ], [ -73.996532, 40.715473 ], [ -73.996059138269885, 40.716231778125049 ], [ -73.996058726783204, 40.716231640713509 ], [ -73.995809123492393, 40.716644659708024 ], [ -73.995428758787497, 40.717279243047898 ], [ -73.994881514400319, 40.718317547562656 ], [ -73.994808, 40.718457 ], [ -73.993828, 40.718145 ], [ -73.993095, 40.717922 ], [ -73.99222, 40.717658 ], [ -73.991422, 40.717418 ], [ -73.991176, 40.717343 ], [ -73.990703, 40.717201 ], [ -73.989951, 40.716972 ], [ -73.989155, 40.716708 ], [ -73.989754, 40.715553 ], [ -73.990202, 40.714665 ], [ -73.990225, 40.714532 ], [ -73.99022, 40.714405 ], [ -73.990755, 40.714554 ], [ -73.991225, 40.714487 ], [ -73.992134, 40.71442 ], [ -73.992562, 40.714388 ], [ -73.992852, 40.714367 ], [ -73.993016, 40.714356 ], [ -73.993951, 40.714291 ], [ -73.99414, 40.714269 ], [ -73.994347, 40.714247 ], [ -73.9945, 40.714231 ], [ -73.994657, 40.71422 ], [ -73.99484, 40.714209 ], [ -73.996478, 40.714107 ], [ -73.997444, 40.714067 ], [ -73.997504, 40.714069 ], [ -73.997092, 40.714618 ] ] ] } },
{ "type": "Feature", "id": 8, "properties": { "native_indigenous": "0.645413870246085", "renter_percent": "0.685510887772194", "percentile_rank_combined": "0.868801", "vulnerability_score": "58.8434629887874", "population_count": "4168", "lmi_80_ami": "71.1804102134784", "home_energy_affordability": "0.0632063624947677", "percentile_rank_combined_1": "0.777937", "vulnerability_score_percentile": "0.742415", "oil_storage": "0", "coastal_flooding_storm_risk": "0.180297397769517", "percentile_rank_combined_2": "0", "households_disabled": "0.822594142259414", "traffic_truck_highways": "0.848416751787538", "benzene_concentration": "0.873100616016427", "agricultural_land_use": "0", "rmp_sites": "79.0678490410394", "industrial_land_use": "0", "traffic_number_vehicles": "0.912177740515615", "lmi_poverty_federal": "0.779359430604982", "health_insurance_rate": "0.106633081444165", "particulate_matter_25": "0.970727685013399", "population_no_college": "0.23744769874477", "redc": "New York City", "burden_score_percentile": "0.91708", "remediation_sites": "0", "inland_flooding_risk": "0", "copd_ed_rate": "0.576834139163338", "city_town": "New York city", "scrap_metal_processing": "0", "redlining_updated": "1", "dac_designation": "Designated as DAC", "county": "New York", "age_over_65": "0.916091232475413", "premature_deaths": "0.510405717889426", "asthma_ed_rate": "0.924952701282321", "unemployment_rate": "0.381282860147213", "household_single_parent": "0.372906826964362", "burden_score": "44.1141160875322", "low_vegetative_cover": "0.881616516582473", "housing_vacancy_rate": "0.117484597408116", "mobile_homes": "0", "drive_time_healthcare": "0.0804245764441723", "black_african_american_percent": "0.43537268418785", "household_low_count_flag": "No", "days_above_90_degrees_2050": "0.78521986970684", "landfills": "0", "tribal_designation": "No", "english_proficiency": "0.850245098039216", "internet_access": "0.864859184531316", "latino_percent": "0.797465681098205", "rent_percent_income": "0.673516949152542", "combined_score": "102.95757907632", "household_count": "1908", "mi_hospitalization_rate": "0.257840454641128", "urban_rural": "urban", "homes_built_before_1960": "0.517782426778243", "municipal_waste_combustors": "0", "low_birth_weight": "0.633340305375445", "nyc_region": "NYC", "geoid": "36061001200", "wastewater_discharge": "0.968515205724508", "asian_percent": "0.838372610048911", "power_generation_facilities": "0.958955223880597" }, "geometry": { "type": "Polygon", "coordinates": [ [ [ -73.984233, 40.716956 ], [ -73.984173, 40.717068 ], [ -73.98414, 40.717128 ], [ -73.984071, 40.717259 ], [ -73.984035, 40.717331 ], [ -73.983995, 40.717414 ], [ -73.983395, 40.718571 ], [ -73.982477, 40.71829 ], [ -73.983104, 40.717181 ], [ -73.982289, 40.716976 ], [ -73.981438, 40.716718 ], [ -73.980577, 40.716455 ], [ -73.980022, 40.716287 ], [ -73.97909, 40.716005 ], [ -73.978909, 40.715951 ], [ -73.978992, 40.715798 ], [ -73.97902, 40.715748 ], [ -73.979102, 40.715612 ], [ -73.979134, 40.715553 ], [ -73.979222, 40.715403 ], [ -73.979495, 40.71489 ], [ -73.979962, 40.713973 ], [ -73.980923, 40.714264 ], [ -73.98165, 40.714461 ], [ -73.982342, 40.714658 ], [ -73.982453, 40.714699 ], [ -73.983, 40.714835 ], [ -73.983338, 40.714933 ], [ -73.984258, 40.71521 ], [ -73.985013, 40.715438 ], [ -73.984536, 40.716394 ], [ -73.984233, 40.716956 ] ] ] } },
{ "type": "Feature", "id": 9, "properties": { "native_indigenous": "0.707214765100671", "renter_percent": "1", "percentile_rank_combined": "0.991212", "vulnerability_score": "74.001463577205", "population_count": "5157", "lmi_80_ami": "95.3955629970699", "home_energy_affordability": "0.584972791963165", "percentile_rank_combined_1": "0.983763", "vulnerability_score_percentile": "0.947897", "oil_storage": "0", "coastal_flooding_storm_risk": "0.839219330855018", "percentile_rank_combined_2": "0", "households_disabled": "0.973221757322176", "traffic_truck_highways": "0.927477017364658", "benzene_concentration": "0.890349075975359", "agricultural_land_use": "0", "rmp_sites": "79.5421736440503", "industrial_land_use": "0", "traffic_number_vehicles": "0.946552085516663", "lmi_poverty_federal": "0.936571069709022", "health_insurance_rate": "0.324097397145256", "particulate_matter_25": "0.957740672026386", "population_no_college": "0.957949790794979", "redc": "New York City", "burden_score_percentile": "0.961125", "remediation_sites": "0", "inland_flooding_risk": "0", "copd_ed_rate": "0.576834139163338", "city_town": "New York city", "scrap_metal_processing": "0", "redlining_updated": "1", "dac_designation": "Designated as DAC", "county": "New York", "age_over_65": "0.882192927390667", "premature_deaths": "0.510405717889426", "asthma_ed_rate": "0.924952701282321", "unemployment_rate": "0.628811777076761", "household_single_parent": "0.914770287677115", "burden_score": "49.1224871680283", "low_vegetative_cover": "0.530199868218757", "housing_vacancy_rate": "0.321861057998725", "mobile_homes": "0", "drive_time_healthcare": "0.217187181057359", "black_african_american_percent": "0.726195605342525", "household_low_count_flag": "No", "days_above_90_degrees_2050": "0.78521986970684", "landfills": "0", "tribal_designation": "No", "english_proficiency": "0.937254901960784", "internet_access": "0.978982765868012", "latino_percent": "0.9480464625132", "rent_percent_income": "0.276483050847458", "combined_score": "123.123950745233", "household_count": "2479", "mi_hospitalization_rate": "0.257840454641128", "urban_rural": "urban", "homes_built_before_1960": "0.592677824267782", "municipal_waste_combustors": "0", "low_birth_weight": "0.633340305375445", "nyc_region": "NYC", "geoid": "36061001002", "wastewater_discharge": "0.980322003577817", "asian_percent": "0.847043130280125", "power_generation_facilities": "0.986940298507463" }, "geometry": { "type": "Polygon", "coordinates": [ [ [ -73.979992, 40.71754 ], [ -73.979965, 40.71759 ], [ -73.979486, 40.718528 ], [ -73.979416, 40.718666 ], [ -73.979039, 40.719387 ], [ -73.978753, 40.719934 ], [ -73.978034, 40.71964 ], [ -73.977224, 40.71931 ], [ -73.977052, 40.719276 ], [ -73.976738, 40.719214 ], [ -73.976481, 40.719163 ], [ -73.976355, 40.719133 ], [ -73.97614, 40.719088 ], [ -73.975452, 40.718947 ], [ -73.975119, 40.718753 ], [ -73.974995, 40.718746 ], [ -73.974923, 40.718766 ], [ -73.974874, 40.718779 ], [ -73.974742, 40.718841 ], [ -73.973635, 40.718612 ], [ -73.973575576891804, 40.718586178706829 ], [ -73.973741017959753, 40.718094675771923 ], [ -73.973917505289634, 40.717593583066517 ], [ -73.974101297238036, 40.717094013148305 ], [ -73.974292370958651, 40.716596027671038 ], [ -73.974490702708081, 40.716099688091596 ], [ -73.974696267848842, 40.715605055662408 ], [ -73.974909040852467, 40.715112191423827 ], [ -73.97512899530274, 40.714621156196721 ], [ -73.975149779371236, 40.714579423863512 ], [ -73.975158874668381, 40.714561324828658 ], [ -73.975227, 40.714582 ], [ -73.976344, 40.714917 ], [ -73.9764, 40.714931 ], [ -73.976454, 40.714949 ], [ -73.976554, 40.714978 ], [ -73.976614, 40.714995 ], [ -73.976587, 40.715047 ], [ -73.976457, 40.715299 ], [ -73.97724, 40.715485 ], [ -73.977917, 40.715649 ], [ -73.978083, 40.715692 ], [ -73.978438, 40.715804 ], [ -73.978543, 40.715837 ], [ -73.978909, 40.715951 ], [ -73.97909, 40.716005 ], [ -73.980022, 40.716287 ], [ -73.980577, 40.716455 ], [ -73.98023, 40.717096 ], [ -73.979992, 40.71754 ] ] ] } },
{ "type": "Feature", "id": 10, "properties": { "native_indigenous": "0.370525727069351", "renter_percent": "0.965871021775544", "percentile_rank_combined": "0.928228", "vulnerability_score": "65.4753604261142", "population_count": "2941", "lmi_80_ami": "89.7237337798242", "home_energy_affordability": "0.257639179573043", "percentile_rank_combined_1": "0.877268", "vulnerability_score_percentile": "0.84411", "oil_storage": "0", "coastal_flooding_storm_risk": "0", "percentile_rank_combined_2": "0", "households_disabled": "0.832008368200837", "traffic_truck_highways": "0.811848825331971", "benzene_concentration": "0.864681724845996", "agricultural_land_use": "0", "rmp_sites": "76.5931119818519", "industrial_land_use": "0", "traffic_number_vehicles": "0.92957451268078", "lmi_poverty_federal": "0.870211429767637", "health_insurance_rate": "0.500419815281276", "particulate_matter_25": "0.975468975468976", "population_no_college": "0.379707112970711", "redc": "New York City", "burden_score_percentile": "0.902812", "remediation_sites": "0.574183976261128", "inland_flooding_risk": "0", "copd_ed_rate": "0.576834139163338", "city_town": "New York city", "scrap_metal_processing": "0", "redlining_updated": "1", "dac_designation": "Designated as DAC", "county": "New York", "age_over_65": "0.898514333542582", "premature_deaths": "0.510405717889426", "asthma_ed_rate": "0.924952701282321", "unemployment_rate": "0.391798107255521", "household_single_parent": "0.316230141691713", "burden_score": "43.2257785825344", "low_vegetative_cover": "0.831759279595871", "housing_vacancy_rate": "0.0962396430847674", "mobile_homes": "0", "drive_time_healthcare": "0.0804245764441723", "black_african_american_percent": "0.565489013356312", "household_low_count_flag": "No", "days_above_90_degrees_2050": "0.78521986970684", "landfills": "0", "tribal_designation": "No", "english_proficiency": "0.940686274509804", "internet_access": "0.952921395544346", "latino_percent": "0.817740232312566", "rent_percent_income": "0.736440677966102", "combined_score": "108.701139008649", "household_count": "1509", "mi_hospitalization_rate": "0.257840454641128", "urban_rural": "urban", "homes_built_before_1960": "0.488493723849372", "municipal_waste_combustors": "0", "low_birth_weight": "0.633340305375445", "nyc_region": "NYC", "geoid": "36061001402", "wastewater_discharge": "0.956708407871199", "asian_percent": "0.921965317919075", "power_generation_facilities": "0.863805970149254" }, "geometry": { "type": "Polygon", "coordinates": [ [ [ -73.98751, 40.718074 ], [ -73.987434, 40.718213 ], [ -73.98736, 40.71837 ], [ -73.986752, 40.719593 ], [ -73.985911, 40.719339 ], [ -73.985074, 40.719083 ], [ -73.984232, 40.718828 ], [ -73.983395, 40.718571 ], [ -73.983995, 40.717414 ], [ -73.984035, 40.717331 ], [ -73.984071, 40.717259 ], [ -73.98414, 40.717128 ], [ -73.984173, 40.717068 ], [ -73.984233, 40.716956 ], [ -73.984536, 40.716394 ], [ -73.985013, 40.715438 ], [ -73.985801, 40.715677 ], [ -73.985867, 40.715697 ], [ -73.986721, 40.715952 ], [ -73.987535, 40.716197 ], [ -73.988367, 40.716446 ], [ -73.987879, 40.717409 ], [ -73.98751, 40.718074 ] ] ] } },
{ "type": "Feature", "id": 11, "properties": { "native_indigenous": "0.772371364653244", "renter_percent": "0.915829145728643", "percentile_rank_combined": "0.912743", "vulnerability_score": "65.4937314609878", "population_count": "6565", "lmi_80_ami": "75.7011301799916", "home_energy_affordability": "0.257639179573043", "percentile_rank_combined_1": "0.850048", "vulnerability_score_percentile": "0.844319", "oil_storage": "0", "coastal_flooding_storm_risk": "0.0724907063197026", "percentile_rank_combined_2": "0", "households_disabled": "0.918200836820084", "traffic_truck_highways": "0.813074565883555", "benzene_concentration": "0.874743326488706", "agricultural_land_use": "0", "rmp_sites": "77.6448752320066", "industrial_land_use": "0.183257918552036", "traffic_number_vehicles": "0.8748690002096", "lmi_poverty_federal": "0.89637848021771", "health_insurance_rate": "0.670445004198153", "particulate_matter_25": "0.968460111317254", "population_no_college": "0.508995815899582", "redc": "New York City", "burden_score_percentile": "0.872829", "remediation_sites": "0", "inland_flooding_risk": "0", "copd_ed_rate": "0.576834139163338", "city_town": "New York city", "scrap_metal_processing": "0", "redlining_updated": "1", "dac_designation": "Designated as DAC", "county": "New York", "age_over_65": "0.612052730696798", "premature_deaths": "0.510405717889426", "asthma_ed_rate": "0.924952701282321", "unemployment_rate": "0.622502628811777", "household_single_parent": "0.585444396736797", "burden_score": "41.6918162840396", "low_vegetative_cover": "0.652536788930376", "housing_vacancy_rate": "0.266836626301253", "mobile_homes": "0", "drive_time_healthcare": "0.0730761379873444", "black_african_american_percent": "0.667169323567428", "household_low_count_flag": "No", "days_above_90_degrees_2050": "0.78521986970684", "landfills": "0", "tribal_designation": "No", "english_proficiency": "0.831127450980392", "internet_access": "0.845523329129886", "latino_percent": "0.882576557550158", "rent_percent_income": "0.485805084745763", "combined_score": "107.185547745027", "household_count": "3057", "mi_hospitalization_rate": "0.257840454641128", "urban_rural": "urban", "homes_built_before_1960": "0.156066945606695", "municipal_waste_combustors": "0", "low_birth_weight": "0.633340305375445", "nyc_region": "NYC", "geoid": "36061002201", "wastewater_discharge": "0.96350626118068", "asian_percent": "0.861716318363717", "power_generation_facilities": "0.942164179104478" }, "geometry": { "type": "Polygon", "coordinates": [ [ [ -73.983824, 40.721473 ], [ -73.983003, 40.721223 ], [ -73.982167, 40.720969 ], [ -73.981308, 40.720709 ], [ -73.979735, 40.720235 ], [ -73.978753, 40.719934 ], [ -73.979039, 40.719387 ], [ -73.979416, 40.718666 ], [ -73.979486, 40.718528 ], [ -73.979965, 40.71759 ], [ -73.979992, 40.71754 ], [ -73.98023, 40.717096 ], [ -73.980577, 40.716455 ], [ -73.981438, 40.716718 ], [ -73.982289, 40.716976 ], [ -73.983104, 40.717181 ], [ -73.982477, 40.71829 ], [ -73.983395, 40.718571 ], [ -73.984232, 40.718828 ], [ -73.985074, 40.719083 ], [ -73.984477, 40.720235 ], [ -73.983824, 40.721473 ] ] ] } },
{ "type": "Feature", "id": 12, "properties": { "native_indigenous": "0.919742729306488", "renter_percent": "0.94535175879397", "percentile_rank_combined": "0.828625", "vulnerability_score": "57.5464343734731", "population_count": "6788", "lmi_80_ami": "81.3311008790289", "home_energy_affordability": "0.257639179573043", "percentile_rank_combined_1": "0.713945", "vulnerability_score_percentile": "0.721699", "oil_storage": "0", "coastal_flooding_storm_risk": "0", "percentile_rank_combined_2": "0", "households_disabled": "0.293514644351464", "traffic_truck_highways": "0.818386108273749", "benzene_concentration": "0.83264887063655", "agricultural_land_use": "0", "rmp_sites": "73.7265415549598", "industrial_land_use": "0.47737556561086", "traffic_number_vehicles": "0.939635296583526", "lmi_poverty_federal": "0.785639522713", "health_insurance_rate": "0.740973971452561", "particulate_matter_25": "0.980416408987838", "population_no_college": "0.374267782426778", "redc": "New York City", "burden_score_percentile": "0.880893", "remediation_sites": "0", "inland_flooding_risk": "0", "copd_ed_rate": "0.0924952701282321", "city_town": "New York city", "scrap_metal_processing": "0", "redlining_updated": "1", "dac_designation": "Designated as DAC", "county": "New York", "age_over_65": "0.612889725884076", "premature_deaths": "0.211267605633803", "asthma_ed_rate": "0.653983603111205", "unemployment_rate": "0.363406940063091", "household_single_parent": "0.203091455560326", "burden_score": "41.9863031983485", "low_vegetative_cover": "0.830441467164507", "housing_vacancy_rate": "0.579774803484173", "mobile_homes": "0", "drive_time_healthcare": "0.0140845070422535", "black_african_american_percent": "0.515941404566997", "household_low_count_flag": "No", "days_above_90_degrees_2050": "0.78521986970684", "landfills": "0", "tribal_designation": "No", "english_proficiency": "0.932107843137255", "internet_access": "0.915090374106768", "latino_percent": "0.539387539598733", "rent_percent_income": "0.653813559322034", "combined_score": "99.5327375718216", "household_count": "2940", "mi_hospitalization_rate": "0.0791412334245422", "urban_rural": "urban", "homes_built_before_1960": "0.719037656903766", "municipal_waste_combustors": "0", "low_birth_weight": "0.415394268981385", "nyc_region": "NYC", "geoid": "36061001800", "wastewater_discharge": "0.95134168157424", "asian_percent": "0.968208092485549", "power_generation_facilities": "0.291044776119403" }, "geometry": { "type": "Polygon", "coordinates": [ [ [ -73.994403741974253, 40.719444699301597 ], [ -73.994398663246841, 40.719457108927891 ], [ -73.994234709823587, 40.719851515066139 ], [ -73.994180109158449, 40.719982860748132 ], [ -73.994035, 40.720323 ], [ -73.993795, 40.720937 ], [ -73.993669, 40.721256 ], [ -73.993523, 40.721632 ], [ -73.992731, 40.721395 ], [ -73.992237, 40.721248 ], [ -73.991506, 40.721028 ], [ -73.990629, 40.720766 ], [ -73.989857, 40.720533 ], [ -73.98962, 40.720462 ], [ -73.989114, 40.720308 ], [ -73.988354, 40.720077 ], [ -73.987542, 40.719833 ], [ -73.986752, 40.719593 ], [ -73.98736, 40.71837 ], [ -73.987434, 40.718213 ], [ -73.98751, 40.718074 ], [ -73.987879, 40.717409 ], [ -73.988367, 40.716446 ], [ -73.989155, 40.716708 ], [ -73.989951, 40.716972 ], [ -73.990703, 40.717201 ], [ -73.991176, 40.717343 ], [ -73.991422, 40.717418 ], [ -73.99222, 40.717658 ], [ -73.993095, 40.717922 ], [ -73.993828, 40.718145 ], [ -73.994808, 40.718457 ], [ -73.994807945104242, 40.718457132972873 ], [ -73.994807790213045, 40.718457426852957 ], [ -73.99480394980111, 40.718466810714908 ], [ -73.994422, 40.719392 ], [ -73.994403741974253, 40.719444699301597 ] ] ] } },
{ "type": "Feature", "id": 13, "properties": { "native_indigenous": "0.263143176733781", "renter_percent": "0.990159128978224", "percentile_rank_combined": "0.993723", "vulnerability_score": "75.8640209401485", "population_count": "4586", "lmi_80_ami": "99.1209711176224", "home_energy_affordability": "0.584972791963165", "percentile_rank_combined_1": "0.988061", "vulnerability_score_percentile": "0.969031", "oil_storage": "0", "coastal_flooding_storm_risk": "0.83550185873606", "percentile_rank_combined_2": "0", "households_disabled": "0.939539748953975", "traffic_truck_highways": "0.821450459652707", "benzene_concentration": "0.895687885010267", "agricultural_land_use": "0", "rmp_sites": "78.4904103938956", "industrial_land_use": "0", "traffic_number_vehicles": "0.944456088870258", "lmi_poverty_federal": "0.980322378061545", "health_insurance_rate": "0.218513853904282", "particulate_matter_25": "0.954854669140383", "population_no_college": "0.987029288702929", "redc": "New York City", "burden_score_percentile": "0.962366", "remediation_sites": "0", "inland_flooding_risk": "0", "copd_ed_rate": "0.576834139163338", "city_town": "New York city", "scrap_metal_processing": "0", "redlining_updated": "1", "dac_designation": "Designated as DAC", "county": "New York", "age_over_65": "0.697426239799121", "premature_deaths": "0.510405717889426", "asthma_ed_rate": "0.924952701282321", "unemployment_rate": "0.554363827549947", "household_single_parent": "0.939673679690854", "burden_score": "49.3675962096356", "low_vegetative_cover": "0.573028772238085", "housing_vacancy_rate": "0.127894625026556", "mobile_homes": "0.246856386499007", "drive_time_healthcare": "0.36313533374158", "black_african_american_percent": "0.743860404997846", "household_low_count_flag": "No", "days_above_90_degrees_2050": "0.78521986970684", "landfills": "0", "tribal_designation": "No", "english_proficiency": "0.945588235294118", "internet_access": "0.977301387137453", "latino_percent": "0.920802534318902", "rent_percent_income": "0.640254237288136", "combined_score": "125.231617149784", "household_count": "1964", "mi_hospitalization_rate": "0.257840454641128", "urban_rural": "urban", "homes_built_before_1960": "0.888284518828452", "municipal_waste_combustors": "0", "low_birth_weight": "0.633340305375445", "nyc_region": "NYC", "geoid": "36061002000", "wastewater_discharge": "0.978533094812165", "asian_percent": "0.867274344152957", "power_generation_facilities": "0.917910447761194" }, "geometry": { "type": "Polygon", "coordinates": [ [ [ -73.978231, 40.720674 ], [ -73.978016, 40.720966 ], [ -73.977788, 40.721277 ], [ -73.977683, 40.72142 ], [ -73.977364, 40.721861 ], [ -73.977346, 40.721885 ], [ -73.976893, 40.722498 ], [ -73.97616, 40.722187 ], [ -73.975533, 40.721922 ], [ -73.974763, 40.721596 ], [ -73.974648, 40.72152 ], [ -73.974543, 40.721471 ], [ -73.972964067100307, 40.720767365625328 ], [ -73.972986497370997, 40.72067054949656 ], [ -73.97309006596916, 40.720253744771121 ], [ -73.973200403781661, 40.719837946841288 ], [ -73.973317493793402, 40.719423219350205 ], [ -73.973441317956841, 40.719009625775783 ], [ -73.973571857194742, 40.718597229421441 ], [ -73.973575576891804, 40.718586178706829 ], [ -73.973635, 40.718612 ], [ -73.974742, 40.718841 ], [ -73.974874, 40.718779 ], [ -73.974923, 40.718766 ], [ -73.974995, 40.718746 ], [ -73.975119, 40.718753 ], [ -73.975452, 40.718947 ], [ -73.97614, 40.719088 ], [ -73.976355, 40.719133 ], [ -73.976481, 40.719163 ], [ -73.976738, 40.719214 ], [ -73.977052, 40.719276 ], [ -73.977224, 40.71931 ], [ -73.978034, 40.71964 ], [ -73.978753, 40.719934 ], [ -73.978719, 40.719983 ], [ -73.978231, 40.720674 ] ] ] } },
{ "type": "Feature", "id": 14, "properties": { "native_indigenous": "0.809284116331096", "renter_percent": "0.962939698492462", "percentile_rank_combined": "0.732162", "vulnerability_score": "50.6571624776682", "population_count": "2099", "lmi_80_ami": "36.3331938049393", "home_energy_affordability": "0.0632063624947677", "percentile_rank_combined_1": "0.573066", "vulnerability_score_percentile": "0.574806", "oil_storage": "0", "coastal_flooding_storm_risk": "0.118959107806691", "percentile_rank_combined_2": "0", "households_disabled": "0.189958158995816", "traffic_truck_highways": "0.712155260469867", "benzene_concentration": "0.878850102669405", "agricultural_land_use": "0", "rmp_sites": "76.8199628789441", "industrial_land_use": "0", "traffic_number_vehicles": "0.810102703835674", "lmi_poverty_federal": "0.787942223152606", "health_insurance_rate": "0.803316540722082", "particulate_matter_25": "0.967017109874253", "population_no_college": "0.0631799163179916", "redc": "New York City", "burden_score_percentile": "0.875517", "remediation_sites": "0", "inland_flooding_risk": "0", "copd_ed_rate": "0.576834139163338", "city_town": "New York city", "scrap_metal_processing": "0", "redlining_updated": "1", "dac_designation": "Designated as DAC", "county": "New York", "age_over_65": "0.127223268466206", "premature_deaths": "0.510405717889426", "asthma_ed_rate": "0.924952701282321", "unemployment_rate": "0.419137749737119", "household_single_parent": "0.607556891369687", "burden_score": "41.8299085800097", "low_vegetative_cover": "0.809356468262684", "housing_vacancy_rate": "0.298066709156575", "mobile_homes": "0", "drive_time_healthcare": "0.0469483568075117", "black_african_american_percent": "0.647781128823783", "household_low_count_flag": "No", "days_above_90_degrees_2050": "0.78521986970684", "landfills": "0", "tribal_designation": "No", "english_proficiency": "0.694117647058823", "internet_access": "0.349516603614964", "latino_percent": "0.634846884899683", "rent_percent_income": "0.222033898305085", "combined_score": "92.4870710576779", "household_count": "1127", "mi_hospitalization_rate": "0.257840454641128", "urban_rural": "urban", "homes_built_before_1960": "0.247907949790795", "municipal_waste_combustors": "0", "low_birth_weight": "0.633340305375445", "nyc_region": "NYC", "geoid": "36061002202", "wastewater_discharge": "0.962432915921288", "asian_percent": "0.779902178746109", "power_generation_facilities": "0.916044776119403" }, "geometry": { "type": "Polygon", "coordinates": [ [ [ -73.982964, 40.722671 ], [ -73.980607, 40.721678 ], [ -73.978231, 40.720674 ], [ -73.978719, 40.719983 ], [ -73.978753, 40.719934 ], [ -73.979735, 40.720235 ], [ -73.981308, 40.720709 ], [ -73.982167, 40.720969 ], [ -73.983003, 40.721223 ], [ -73.983824, 40.721473 ], [ -73.983444, 40.722019 ], [ -73.982964, 40.722671 ] ] ] } },
{ "type": "Feature", "id": 15, "properties": { "native_indigenous": "0.91582774049217", "renter_percent": "0.910804020100502", "percentile_rank_combined": "0.842226", "vulnerability_score": "61.050601618992", "population_count": "3132", "lmi_80_ami": "85.935537881959", "home_energy_affordability": "0.0632063624947677", "percentile_rank_combined_1": "0.73639", "vulnerability_score_percentile": "0.776104", "oil_storage": "0", "coastal_flooding_storm_risk": "0", "percentile_rank_combined_2": "0", "households_disabled": "0.902092050209205", "traffic_truck_highways": "0.798978549540347", "benzene_concentration": "0.817864476386037", "agricultural_land_use": "0", "rmp_sites": "72.3654361724067", "industrial_land_use": "0", "traffic_number_vehicles": "0.909033745546007", "lmi_poverty_federal": "0.769311283232154", "health_insurance_rate": "0.312762384550798", "particulate_matter_25": "0.97979797979798", "population_no_college": "0.362761506276151", "redc": "New York City", "burden_score_percentile": "0.818859", "remediation_sites": "0", "inland_flooding_risk": "0", "copd_ed_rate": "0.0924952701282321", "city_town": "New York city", "scrap_metal_processing": "0", "redlining_updated": "1", "dac_designation": "Designated as DAC", "county": "New York", "age_over_65": "0.759363883657669", "premature_deaths": "0.211267605633803", "asthma_ed_rate": "0.653983603111205", "unemployment_rate": "0.74931650893796", "household_single_parent": "0.468656075568914", "burden_score": "39.5104760567051", "low_vegetative_cover": "0.699538765649023", "housing_vacancy_rate": "0.530274059910771", "mobile_homes": "0", "drive_time_healthcare": "0.0510308226168606", "black_african_american_percent": "0.668892718655752", "household_low_count_flag": "No", "days_above_90_degrees_2050": "0.78521986970684", "landfills": "0", "tribal_designation": "No", "english_proficiency": "0.908333333333333", "internet_access": "0.832282471626734", "latino_percent": "0.869904963041183", "rent_percent_income": "0.654025423728814", "combined_score": "100.561077675697", "household_count": "1440", "mi_hospitalization_rate": "0.0791412334245422", "urban_rural": "urban", "homes_built_before_1960": "0.370083682008368", "municipal_waste_combustors": "0", "low_birth_weight": "0.415394268981385", "nyc_region": "NYC", "geoid": "36061003601", "wastewater_discharge": "0.935957066189624", "asian_percent": "0.904846598488217", "power_generation_facilities": "0.367537313432836" }, "geometry": { "type": "Polygon", "coordinates": [ [ [ -73.993089, 40.722819 ], [ -73.992735552916756, 40.723779535597764 ], [ -73.992632550203595, 40.724056864649874 ], [ -73.992603450406648, 40.724135831615683 ], [ -73.991256, 40.723723 ], [ -73.991022, 40.723649 ], [ -73.990274, 40.723426 ], [ -73.989392, 40.723174 ], [ -73.988643, 40.722933 ], [ -73.98923, 40.721677 ], [ -73.989857, 40.720533 ], [ -73.990629, 40.720766 ], [ -73.991506, 40.721028 ], [ -73.992237, 40.721248 ], [ -73.992731, 40.721395 ], [ -73.993523, 40.721632 ], [ -73.993259, 40.722353 ], [ -73.993089, 40.722819 ] ] ] } },
{ "type": "Feature", "id": 16, "properties": { "native_indigenous": "0.754753914988814", "renter_percent": "0.934254606365159", "percentile_rank_combined": "0.917556", "vulnerability_score": "62.6196315579721", "population_count": "3488", "lmi_80_ami": "79.5730431142738", "home_energy_affordability": "0.257639179573043", "percentile_rank_combined_1": "0.857689", "vulnerability_score_percentile": "0.800377", "oil_storage": "0", "coastal_flooding_storm_risk": "0.514869888475836", "percentile_rank_combined_2": "0", "households_disabled": "0.67928870292887", "traffic_truck_highways": "0.673748723186926", "benzene_concentration": "0.883367556468172", "agricultural_land_use": "0", "rmp_sites": "76.8818313054238", "industrial_land_use": "0", "traffic_number_vehicles": "0.782016348773842", "lmi_poverty_federal": "0.892401088549299", "health_insurance_rate": "0.294920235096558", "particulate_matter_25": "0.961038961038961", "population_no_college": "0.472803347280335", "redc": "New York City", "burden_score_percentile": "0.927626", "remediation_sites": "0", "inland_flooding_risk": "0", "copd_ed_rate": "0.576834139163338", "city_town": "New York city", "scrap_metal_processing": "0", "redlining_updated": "1", "dac_designation": "Designated as DAC", "county": "New York", "age_over_65": "0.185812931575643", "premature_deaths": "0.510405717889426", "asthma_ed_rate": "0.924952701282321", "unemployment_rate": "0.614511041009464", "household_single_parent": "0.664233576642336", "burden_score": "45.0450585165034", "low_vegetative_cover": "0.871732923347244", "housing_vacancy_rate": "0.135967707669428", "mobile_homes": "0", "drive_time_healthcare": "0.067360685854256", "black_african_american_percent": "0.718655751831107", "household_low_count_flag": "No", "days_above_90_degrees_2050": "0.78521986970684", "landfills": "0", "tribal_designation": "No", "english_proficiency": "0.739460784313726", "internet_access": "0.887557797393863", "latino_percent": "0.825343189017951", "rent_percent_income": "0.297457627118644", "combined_score": "107.664690074476", "household_count": "1555", "mi_hospitalization_rate": "0.257840454641128", "urban_rural": "urban", "homes_built_before_1960": "0.35836820083682", "municipal_waste_combustors": "0", "low_birth_weight": "0.633340305375445", "nyc_region": "NYC", "geoid": "36061002601", "wastewater_discharge": "0.965295169946333", "asian_percent": "0.885282347710093", "power_generation_facilities": "0.916044776119403" }, "geometry": { "type": "Polygon", "coordinates": [ [ [ -73.982083, 40.723882 ], [ -73.981637, 40.724494 ], [ -73.979281, 40.723505 ], [ -73.976893, 40.722498 ], [ -73.977346, 40.721885 ], [ -73.977364, 40.721861 ], [ -73.977683, 40.72142 ], [ -73.977788, 40.721277 ], [ -73.978016, 40.720966 ], [ -73.978231, 40.720674 ], [ -73.980607, 40.721678 ], [ -73.982964, 40.722671 ], [ -73.982524, 40.723278 ], [ -73.982083, 40.723882 ] ] ] } },
{ "type": "Feature", "id": 17, "properties": { "native_indigenous": "0.695469798657718", "renter_percent": "0.985762144053601", "percentile_rank_combined": "0.998117", "vulnerability_score": "77.7324793921647", "population_count": "4192", "lmi_80_ami": "97.2791963164504", "home_energy_affordability": "0.584972791963165", "percentile_rank_combined_1": "0.99618", "vulnerability_score_percentile": "0.985353", "oil_storage": "0.822222222222222", "coastal_flooding_storm_risk": "0.768587360594796", "percentile_rank_combined_2": "0", "households_disabled": "0.976778242677824", "traffic_truck_highways": "0.825331971399387", "benzene_concentration": "0.907392197125257", "agricultural_land_use": "0", "rmp_sites": "78.5522788203753", "industrial_land_use": "0", "traffic_number_vehicles": "0.954726472437644", "lmi_poverty_federal": "0.991417207452376", "health_insurance_rate": "0.795130142737196", "particulate_matter_25": "0.951350237064523", "population_no_college": "0.973012552301255", "redc": "New York City", "burden_score_percentile": "0.979735", "remediation_sites": "0.787091988130564", "inland_flooding_risk": "0", "copd_ed_rate": "0.576834139163338", "city_town": "New York city", "scrap_metal_processing": "0", "redlining_updated": "1", "dac_designation": "Designated as DAC", "county": "New York", "age_over_65": "0.538606403013183", "premature_deaths": "0.510405717889426", "asthma_ed_rate": "0.924952701282321", "unemployment_rate": "0.822292323869611", "household_single_parent": "0.891369686560756", "burden_score": "52.2254331113628", "low_vegetative_cover": "0.581374917636723", "housing_vacancy_rate": "0.0206076056936478", "mobile_homes": "0", "drive_time_healthcare": "0.248826291079812", "black_african_american_percent": "0.721671693235674", "household_low_count_flag": "No", "days_above_90_degrees_2050": "0.78521986970684", "landfills": "0", "tribal_designation": "No", "english_proficiency": "0.917156862745098", "internet_access": "0.876208490962589", "latino_percent": "0.959450897571278", "rent_percent_income": "0.633898305084746", "combined_score": "129.957912503527", "household_count": "1850", "mi_hospitalization_rate": "0.257840454641128", "urban_rural": "urban", "homes_built_before_1960": "0.90836820083682", "municipal_waste_combustors": "0", "low_birth_weight": "0.633340305375445", "nyc_region": "NYC", "geoid": "36061002400", "wastewater_discharge": "0.982110912343471", "asian_percent": "0.80658070253446", "power_generation_facilities": "0.916044776119403" }, "geometry": { "type": "Polygon", "coordinates": [ [ [ -73.97624, 40.723401 ], [ -73.976205, 40.723448 ], [ -73.97603, 40.723689 ], [ -73.976, 40.723729 ], [ -73.975598, 40.724283 ], [ -73.975164, 40.724877 ], [ -73.974733, 40.725468 ], [ -73.974269, 40.726109 ], [ -73.973799, 40.726752 ], [ -73.973298, 40.727428 ], [ -73.973100387734505, 40.727341386290682 ], [ -73.972050154132319, 40.726880946797536 ], [ -73.972031177312999, 40.726867849903584 ], [ -73.971977, 40.72683 ], [ -73.971953723879352, 40.726816228295277 ], [ -73.971912441517972, 40.726791009269988 ], [ -73.971856712377118, 40.72675868546613 ], [ -73.971796019869615, 40.72671367965664 ], [ -73.971626972717061, 40.726628453499444 ], [ -73.9716697270118, 40.7263923271544 ], [ -73.971695874515973, 40.726241829804941 ], [ -73.971718943615073, 40.72612199325954 ], [ -73.971738433793647, 40.725999667555534 ], [ -73.971767554102385, 40.725833302952061 ], [ -73.971774109653126, 40.725821281337097 ], [ -73.971791429614896, 40.725814221149115 ], [ -73.971816505877541, 40.725814966249921 ], [ -73.971859358309018, 40.725582969532873 ], [ -73.971874376952172, 40.725503116079835 ], [ -73.971884909514827, 40.725424405065802 ], [ -73.971911207320701, 40.725290370699945 ], [ -73.971933745010759, 40.725176290351243 ], [ -73.971939754563223, 40.725158038610026 ], [ -73.971961547785867, 40.725039978810834 ], [ -73.972005118411886, 40.724841490210835 ], [ -73.972036669668825, 40.724684070020096 ], [ -73.972065958674136, 40.724559158328688 ], [ -73.972071969603491, 40.724536350858138 ], [ -73.972080981519255, 40.724497567930385 ], [ -73.972084000572877, 40.724467905545708 ], [ -73.972097512909059, 40.72442341523471 ], [ -73.972156090017279, 40.724170178278122 ], [ -73.972165859966225, 40.724131963775754 ], [ -73.972216923762005, 40.723930054646736 ], [ -73.97223344676965, 40.723846779926347 ], [ -73.972264998682419, 40.723714457333649 ], [ -73.972325077315858, 40.723463499327345 ], [ -73.972361157446485, 40.723312060476481 ], [ -73.972399457482766, 40.723148816366631 ], [ -73.972510111803814, 40.722696886006759 ], [ -73.972889713966993, 40.721088297219339 ], [ -73.972964067100307, 40.720767365625328 ], [ -73.974543, 40.721471 ], [ -73.974648, 40.72152 ], [ -73.974763, 40.721596 ], [ -73.975533, 40.721922 ], [ -73.97616, 40.722187 ], [ -73.976893, 40.722498 ], [ -73.976477, 40.723078 ], [ -73.97624, 40.723401 ] ] ] } },
{ "type": "Feature", "id": 18, "properties": { "native_indigenous": "0", "renter_percent": "0.917294807370184", "percentile_rank_combined": "0.775476", "vulnerability_score": "53.0014678641293", "population_count": "2939", "lmi_80_ami": "72.8756802009209", "home_energy_affordability": "0.257639179573043", "percentile_rank_combined_1": "0.639924", "vulnerability_score_percentile": "0.630048", "oil_storage": "0", "coastal_flooding_storm_risk": "0", "percentile_rank_combined_2": "0", "households_disabled": "0.584100418410042", "traffic_truck_highways": "0.750561797752809", "benzene_concentration": "0.866735112936345", "agricultural_land_use": "0", "rmp_sites": "74.5308310991957", "industrial_land_use": "0", "traffic_number_vehicles": "0.805281911548942", "lmi_poverty_federal": "0.763449863931338", "health_insurance_rate": "0.332283795130143", "particulate_matter_25": "0.974438260152546", "population_no_college": "0.137866108786611", "redc": "New York City", "burden_score_percentile": "0.885029", "remediation_sites": "0", "inland_flooding_risk": "0", "copd_ed_rate": "0.312591969728821", "city_town": "New York city", "scrap_metal_processing": "0", "redlining_updated": "1", "dac_designation": "Designated as DAC", "county": "New York", "age_over_65": "0.774639045825487", "premature_deaths": "0.545511877233551", "asthma_ed_rate": "0.708219466050031", "unemployment_rate": "0.00042060988433228", "household_single_parent": "0.379991412623444", "burden_score": "42.1837847587099", "low_vegetative_cover": "0.879639797935427", "housing_vacancy_rate": "0.603569152326322", "mobile_homes": "0", "drive_time_healthcare": "0.0900183710961421", "black_african_american_percent": "0.475226195605343", "household_low_count_flag": "No", "days_above_90_degrees_2050": "0.78521986970684", "landfills": "0", "tribal_designation": "No", "english_proficiency": "0.814950980392157", "internet_access": "0.865069356872635", "latino_percent": "0.769799366420275", "rent_percent_income": "0.366525423728814", "combined_score": "95.1852526228392", "household_count": "1658", "mi_hospitalization_rate": "0.0822984634813723", "urban_rural": "urban", "homes_built_before_1960": "0.599163179916318", "municipal_waste_combustors": "0", "low_birth_weight": "0.527923028655093", "nyc_region": "NYC", "geoid": "36061003002", "wastewater_discharge": "0.940608228980322", "asian_percent": "0.777234326367274", "power_generation_facilities": "0.764925373134328" }, "geometry": { "type": "Polygon", "coordinates": [ [ [ -73.987968, 40.723942 ], [ -73.987502, 40.724584 ], [ -73.985286, 40.723649 ], [ -73.982964, 40.722671 ], [ -73.983444, 40.722019 ], [ -73.983824, 40.721473 ], [ -73.984678, 40.72173 ], [ -73.985516, 40.721985 ], [ -73.986285, 40.722242 ], [ -73.987136, 40.722469 ], [ -73.987865, 40.722697 ], [ -73.988643, 40.722933 ], [ -73.988451, 40.723277 ], [ -73.987968, 40.723942 ] ] ] } },
{ "type": "Feature", "id": 19, "properties": { "native_indigenous": "0.493568232662192", "renter_percent": "0.863902847571189", "percentile_rank_combined": "0.900816", "vulnerability_score": "53.0999066179488", "population_count": "3946", "lmi_80_ami": "69.4223524487233", "home_energy_affordability": "0.257639179573043", "percentile_rank_combined_1": "0.827125", "vulnerability_score_percentile": "0.63235", "oil_storage": "0.937037037037037", "coastal_flooding_storm_risk": "0.96003717472119", "percentile_rank_combined_2": "0", "households_disabled": "0.450836820083682", "traffic_truck_highways": "0.605515832482125", "benzene_concentration": "0.887679671457905", "agricultural_land_use": "0", "rmp_sites": "76.6756032171582", "industrial_land_use": "0.361990950226244", "traffic_number_vehicles": "0.693355690630895", "lmi_poverty_federal": "0.760937827088131", "health_insurance_rate": "0.700251889168766", "particulate_matter_25": "0.966810966810967", "population_no_college": "0.0801255230125523", "redc": "New York City", "burden_score_percentile": "0.982217", "remediation_sites": "0", "inland_flooding_risk": "0", "copd_ed_rate": "0.576834139163338", "city_town": "New York city", "scrap_metal_processing": "0", "redlining_updated": "1", "dac_designation": "Designated as DAC", "county": "New York", "age_over_65": "0.114668340657041", "premature_deaths": "0.510405717889426", "asthma_ed_rate": "0.924952701282321", "unemployment_rate": "0.259095688748686", "household_single_parent": "0.125805066552168", "burden_score": "53.0401802148788", "low_vegetative_cover": "0.84493740390951", "housing_vacancy_rate": "0.655194391332059", "mobile_homes": "0", "drive_time_healthcare": "0.0900183710961421", "black_african_american_percent": "0.564196467040069", "household_low_count_flag": "No", "days_above_90_degrees_2050": "0.78521986970684", "landfills": "0", "tribal_designation": "No", "english_proficiency": "0.528186274509804", "internet_access": "0.53509878100042", "latino_percent": "0.699260823653643", "rent_percent_income": "0.583686440677966", "combined_score": "106.140086832828", "household_count": "2048", "mi_hospitalization_rate": "0.257840454641128", "urban_rural": "urban", "homes_built_before_1960": "0.492887029288703", "municipal_waste_combustors": "0", "low_birth_weight": "0.633340305375445", "nyc_region": "NYC", "geoid": "36061002602", "wastewater_discharge": "0.967084078711986", "asian_percent": "0.772343263672743", "power_generation_facilities": "0.916044776119403" }, "geometry": { "type": "Polygon", "coordinates": [ [ [ -73.980768, 40.725685 ], [ -73.980333, 40.726281 ], [ -73.977977, 40.725288 ], [ -73.975598, 40.724283 ], [ -73.976, 40.723729 ], [ -73.97603, 40.723689 ], [ -73.976205, 40.723448 ], [ -73.97624, 40.723401 ], [ -73.976477, 40.723078 ], [ -73.976893, 40.722498 ], [ -73.979281, 40.723505 ], [ -73.981637, 40.724494 ], [ -73.981211, 40.725073 ], [ -73.980768, 40.725685 ] ] ] } },
{ "type": "Feature", "id": 20, "properties": { "native_indigenous": "0.490492170022371", "renter_percent": "0.923994974874372", "percentile_rank_combined": "0.965474", "vulnerability_score": "58.2607199494001", "population_count": "6765", "lmi_80_ami": "80.8078694014232", "home_energy_affordability": "0.257639179573043", "percentile_rank_combined_1": "0.941738", "vulnerability_score_percentile": "0.733417", "oil_storage": "0.996296296296296", "coastal_flooding_storm_risk": "0.986059479553903", "percentile_rank_combined_2": "0", "households_disabled": "0.505857740585774", "traffic_truck_highways": "0.719509703779367", "benzene_concentration": "0.905133470225873", "agricultural_land_use": "0", "rmp_sites": "76.8612084965972", "industrial_land_use": "0.415158371040724", "traffic_number_vehicles": "0.818486690421295", "lmi_poverty_federal": "0.79296629683902", "health_insurance_rate": "0.129932829554996", "particulate_matter_25": "0.951762523191095", "population_no_college": "0.259832635983264", "redc": "New York City", "burden_score_percentile": "0.991108", "remediation_sites": "0.873145400593472", "inland_flooding_risk": "0", "copd_ed_rate": "0.576834139163338", "city_town": "New York city", "scrap_metal_processing": "0", "redlining_updated": "1", "dac_designation": "Designated as DAC", "county": "New York", "age_over_65": "0.682988072818581", "premature_deaths": "0.510405717889426", "asthma_ed_rate": "0.924952701282321", "unemployment_rate": "0.128496319663512", "household_single_parent": "0.695792185487334", "burden_score": "55.857777678721", "low_vegetative_cover": "0.797935427190863", "housing_vacancy_rate": "0.354578287656682", "mobile_homes": "0", "drive_time_healthcare": "0.0881812614819351", "black_african_american_percent": "0.706161137440758", "household_low_count_flag": "No", "days_above_90_degrees_2050": "0.78521986970684", "landfills": "0", "tribal_designation": "No", "english_proficiency": "0.699509803921569", "internet_access": "0.729508196721311", "latino_percent": "0.832312565997888", "rent_percent_income": "0.414194915254237", "combined_score": "114.118497628121", "household_count": "3385", "mi_hospitalization_rate": "0.257840454641128", "urban_rural": "urban", "homes_built_before_1960": "0.258577405857741", "municipal_waste_combustors": "0", "low_birth_weight": "0.633340305375445", "nyc_region": "NYC", "geoid": "36061002800", "wastewater_discharge": "0.973524150268336", "asian_percent": "0.810582481102712", "power_generation_facilities": "0.865671641791045" }, "geometry": { "type": "Polygon", "coordinates": [ [ [ -73.979469, 40.727468 ], [ -73.978998, 40.728106 ], [ -73.978536, 40.728746 ], [ -73.978005081355491, 40.729423789596623 ], [ -73.977538438350223, 40.729226248419799 ], [ -73.976904363716741, 40.728957824278041 ], [ -73.976196323591637, 40.728661977029105 ], [ -73.975812448994105, 40.728519767622537 ], [ -73.975667826132224, 40.728462532509369 ], [ -73.973582081035303, 40.727552033713081 ], [ -73.973298, 40.727428 ], [ -73.973799, 40.726752 ], [ -73.974269, 40.726109 ], [ -73.974733, 40.725468 ], [ -73.975164, 40.724877 ], [ -73.975598, 40.724283 ], [ -73.977977, 40.725288 ], [ -73.980333, 40.726281 ], [ -73.979906, 40.726866 ], [ -73.979469, 40.727468 ] ] ] } },
{ "type": "Feature", "id": 21, "properties": { "native_indigenous": "0.00587248322147651", "renter_percent": "0.949958123953099", "percentile_rank_combined": "0.730697", "vulnerability_score": "49.1981823467822", "population_count": "8927", "lmi_80_ami": "59.9413980745082", "home_energy_affordability": "0.257639179573043", "percentile_rank_combined_1": "0.570201", "vulnerability_score_percentile": "0.539653", "oil_storage": "0", "coastal_flooding_storm_risk": "0", "percentile_rank_combined_2": "0", "households_disabled": "0.441004184100418", "traffic_truck_highways": "0.826762002042901", "benzene_concentration": "0.841273100616016", "agricultural_land_use": "0", "rmp_sites": "71.5405238193442", "industrial_land_use": "0.166289592760181", "traffic_number_vehicles": "0.841542653531754", "lmi_poverty_federal": "0.62507850115135", "health_insurance_rate": "0.789462636439966", "particulate_matter_25": "0.974644403215832", "population_no_college": "0.0774058577405858", "redc": "New York City", "burden_score_percentile": "0.902605", "remediation_sites": "0", "inland_flooding_risk": "0", "copd_ed_rate": "0.312591969728821", "city_town": "New York city", "scrap_metal_processing": "0", "redlining_updated": "1", "dac_designation": "Designated as DAC", "county": "New York", "age_over_65": "0.35258422264072", "premature_deaths": "0.545511877233551", "asthma_ed_rate": "0.708219466050031", "unemployment_rate": "0.45068349106204", "household_single_parent": "0", "burden_score": "43.2245800852464", "low_vegetative_cover": "1", "housing_vacancy_rate": "0.510941151476524", "mobile_homes": "0", "drive_time_healthcare": "0.0710349050826699", "black_african_american_percent": "0.652520465316674", "household_low_count_flag": "No", "days_above_90_degrees_2050": "0.78521986970684", "landfills": "0", "tribal_designation": "No", "english_proficiency": "0.444117647058823", "internet_access": "0.574401008827238", "latino_percent": "0.515945089757128", "rent_percent_income": "0.415042372881356", "combined_score": "92.4227624320285", "household_count": "4891", "mi_hospitalization_rate": "0.0822984634813723", "urban_rural": "urban", "homes_built_before_1960": "0.802092050209205", "municipal_waste_combustors": "0", "low_birth_weight": "0.527923028655093", "nyc_region": "NYC", "geoid": "36061003800", "wastewater_discharge": "0.92737030411449", "asian_percent": "0.79568697198755", "power_generation_facilities": "0.658582089552239" }, "geometry": { "type": "Polygon", "coordinates": [ [ [ -73.991387158423493, 40.727500719470257 ], [ -73.991352888958289, 40.727557398562716 ], [ -73.991234395590439, 40.7277268052624 ], [ -73.991289170569814, 40.727751336011323 ], [ -73.991285, 40.727762 ], [ -73.991085, 40.727999 ], [ -73.99079, 40.728352 ], [ -73.990359, 40.728929 ], [ -73.989902, 40.729558 ], [ -73.989732, 40.729775 ], [ -73.989651, 40.729879 ], [ -73.989482, 40.730133 ], [ -73.988913, 40.729906 ], [ -73.987239, 40.729192 ], [ -73.984875, 40.728194 ], [ -73.985307, 40.727599 ], [ -73.985753, 40.726988 ], [ -73.986176, 40.726409 ], [ -73.986623, 40.725796 ], [ -73.987053, 40.725203 ], [ -73.987502, 40.724584 ], [ -73.988258, 40.724903 ], [ -73.988464, 40.72499 ], [ -73.98987, 40.725582 ], [ -73.991794, 40.726391 ], [ -73.991548, 40.727089 ], [ -73.991387158423493, 40.727500719470257 ] ] ] } }
]
}
